ALOS-4 (DAICHI-4)       
1 60182U 24123A   24207.20686957  .00003770  00000+0  51170-3 0  9990
2 60182  97.9217 303.3256 0001559 112.4383 247.6994 14.79455298  3567
